IONOSFERA-M 2           
1 61736U 24199B   26161.26583395  .00000037  00000+0  35986-4 0  9999
2 61736  98.7181  34.4215 0001324  44.7471 315.3814 14.22756212129846
PRSC-EO1                
1 62725U 25012A   26161.26883318  .00006477  00000+0  32469-3 0  9997
2 62725  97.4228 233.8636 0004174 283.6368  76.4401 15.17682330 77146
BIOMASS                 
1 63772U 25090A   26161.28345120  .00000899  00000+0  16692-3 0  9994
2 63772  98.0741 348.7006 0001371  91.1057 269.0305 14.67534009 59670
GOSAT-GW (IBUKI GW)     
1 64694U 25141A   26161.23563979  .00000601  00000+0  11436-3 0  9996
2 64694  98.0569  98.6658 0001442  84.7252 275.4117 14.67553589 50824
IONOSFERA-M 3           
1 64876U 25155A   26161.27733249  .00000038  00000+0  37160-4 0  9993
2 64876  98.6022 123.3564 0000587 170.6015 189.5174 14.21485301 45423
IONOSFERA-M 4           
1 64877U 25155B   26161.24179640  .00000040  00000+0  37884-4 0  9996
2 64877  98.6020 123.2393 0000803 118.1587 241.9672 14.21487488 45416
MICROCARB               
1 64899U 25156A   26161.14977549  .00000427  00000+0  75328-4 0  9998
2 64899  97.9831 238.4126 0015066 296.8513  63.1154 14.72318326 46932
CO3D 3                  
1 64900U 25156B   26161.27624073  .00004129  00000+0  19375-3 0  9998
2 64900  97.4328 240.0686 0001191 137.4866 222.6462 15.20205904 48483
CO3D 4                  
1 64901U 25156C   26159.95993788  .00000283  00000+0  16170-4 0  9991
2 64901  97.4332 238.7713 0000729  27.5039 332.6234 15.20199351 48286
CO3D 2                  
1 64902U 25156D   26160.84811311  .00013638  00000+0  63190-3 0  9994
2 64902  97.4328 239.5455 0001407 112.5881 247.5503 15.20204236 48415
CO3D 1                  
1 64903U 25156E   26161.24319688  .00004236  00000+0  19867-3 0  9996
2 64903  97.4328 239.9352 0001226 116.6090 243.5271 15.20207561 48470
PRSC-S1                 
1 65055U 25164A   26161.17001934  .00004567  00000+0  31616-3 0  9991
2 65055  41.1314 327.3312 0007461 302.0166  57.9922 15.06393571 47379
SENTINEL-6B             
1 66514U 25264A   26161.21514964 -.00000025  00000+0  15496-3 0  9994
2 66514  66.0387 149.6595 0008041 269.2111  90.7983 12.80929854 26279
CAS500-3                
1 66655U 25274F   26160.75253214  .00001165  00000+0  13184-3 0  9994
2 66655  97.7447  88.9729 0006367 129.7199 230.4580 14.88303166 29048
CSG-3                   
1 67304U 26001A   26161.24543784  .00000287  00000+0  42591-4 0  9993
2 67304  97.8886 344.9477 0001328  93.5721 266.5644 14.82148990 23438
PRSC-E03                
1 68835U 26092A   26161.22923832  .00002132  00000+0  14830-3 0  9992
2 68835  37.9997 130.7088 0004870 314.7442  45.2923 15.06634343  6902
CAS500-2                
1 69013U 26100AK  26161.17657316  .00005765  00000+0  26645-3 0  9998
2 69013  97.4084  59.1522 0011259  56.4145 303.8163 15.20507583  5746
