OBJECT_NAME,OBJECT_ID,EPOCH,MEAN_MOTION,ECCENTRICITY,INCLINATION,RA_OF_ASC_NODE,ARG_OF_PERICENTER,MEAN_ANOMALY,EPHEMERIS_TYPE,CLASSIFICATION_TYPE,NORAD_CAT_ID,ELEMENT_SET_NO,REV_AT_EPOCH,BSTAR,MEAN_MOTION_DOT,MEAN_MOTION_DDOT
IONOSFERA-M 2,2024-199B,2026-06-10T06:22:48.053280,14.22756212,.00013248,98.7181,34.4215,44.7471,315.3814,0,U,61736,999,12984,.35985886E-4,.37E-6,0
PRSC-EO1,2025-012A,2026-06-10T06:27:07.186752,15.17682330,.00041743,97.4228,233.8636,283.6368,76.4401,0,U,62725,999,7714,.32468615E-3,.6477E-4,0
BIOMASS,2025-090A,2026-06-10T06:48:10.183680,14.67534009,.00013718,98.0741,348.7006,91.1057,269.0305,0,U,63772,999,5967,.1669234E-3,.899E-5,0
GOSAT-GW (IBUKI GW),2025-141A,2026-06-10T05:39:19.277856,14.67553589,.00014422,98.0569,98.6658,84.7252,275.4117,0,U,64694,999,5082,.11436009E-3,.601E-5,0
IONOSFERA-M 3,2025-155A,2026-06-10T06:39:21.527136,14.21485301,.00005874,98.6022,123.3564,170.6015,189.5174,0,U,64876,999,4542,.37160185E-4,.38E-6,0
IONOSFERA-M 4,2025-155B,2026-06-10T05:48:11.208960,14.21487488,.0000803,98.6020,123.2393,118.1587,241.9672,0,U,64877,999,4541,.37883813E-4,.4E-6,0
MICROCARB,2025-156A,2026-06-10T03:35:40.602336,14.72318326,.00150663,97.9831,238.4126,296.8513,63.1154,0,U,64899,999,4693,.7532761E-4,.427E-5,0
CO3D 3,2025-156B,2026-06-10T06:37:47.199072,15.20205904,.00011915,97.4328,240.0686,137.4866,222.6462,0,U,64900,999,4848,.19374987E-3,.4129E-4,0
CO3D 4,2025-156C,2026-06-08T23:02:18.632832,15.20199351,.0000729,97.4332,238.7713,27.5039,332.6234,0,U,64901,999,4828,.16169789E-4,.283E-5,0
CO3D 2,2025-156D,2026-06-09T20:21:16.972704,15.20204236,.00014076,97.4328,239.5455,112.5881,247.5503,0,U,64902,999,4841,.6318995E-3,.13638E-3,0
CO3D 1,2025-156E,2026-06-10T05:50:12.210432,15.20207561,.00012268,97.4328,239.9352,116.6090,243.5271,0,U,64903,999,4847,.19866644E-3,.4236E-4,0
PRSC-S1,2025-164A,2026-06-10T04:04:49.670976,15.06393571,.00074619,41.1314,327.3312,302.0166,57.9922,0,U,65055,999,4737,.31615597E-3,.4567E-4,0
SENTINEL-6B,2025-264A,2026-06-10T05:09:48.928896,12.80929854,.0008041,66.0387,149.6595,269.2111,90.7983,0,U,66514,999,2627,.15496063E-3,-.25E-6,0
CAS500-3,2025-274F,2026-06-09T18:03:38.776896,14.88303166,.0006367,97.7447,88.9729,129.7199,230.4580,0,U,66655,999,2904,.13184E-3,.1165E-4,0
CSG-3,2026-001A,2026-06-10T05:53:25.829376,14.82148990,.00013282,97.8886,344.9477,93.5721,266.5644,0,U,67304,999,2343,.4259093E-4,.287E-5,0
PRSC-E03,2026-092A,2026-06-10T05:30:06.190848,15.06634343,.00048704,37.9997,130.7088,314.7442,45.2923,0,U,68835,999,690,.1483035E-3,.2132E-4,0
CAS500-2,2026-100AK,2026-06-10T04:14:15.921024,15.20507583,.0011259,97.4084,59.1522,56.4145,303.8163,0,U,69013,999,574,.26645212E-3,.5765E-4,0
